CCSDS_OMM_VERS = 2.0
CREATION_DATE  = 
ORIGINATOR     = 

OBJECT_NAME    = STARLINK-36620
OBJECT_ID      = 2026-022G
CENTER_NAME    = EARTH
REF_FRAME      = TEME
TIME_SYSTEM    = UTC
MEAN_ELEMENT_THEORY = SGP/SGP4

EPOCH          = 2026-02-11T06:00:00.999648
MEAN_MOTION    = 15.91168388
ECCENTRICITY   = .00010386
INCLINATION    = 97.2824
RA_OF_ASC_NODE = 74.8708
ARG_OF_PERICENTER = 77.8475
MEAN_ANOMALY   = 270.6724

EPHEMERIS_TYPE = 0
CLASSIFICATION_TYPE = U
NORAD_CAT_ID   = 67654
ELEMENT_SET_NO = 999
REV_AT_EPOCH   = 264
BSTAR          = -.58429522E-2
MEAN_MOTION_DOT = -.1827462E-1
MEAN_MOTION_DDOT = .91289167E-3

CCSDS_OMM_VERS = 2.0
CREATION_DATE  = 
ORIGINATOR     = 

OBJECT_NAME    = STARLINK-36720
OBJECT_ID      = 2026-022H
CENTER_NAME    = EARTH
REF_FRAME      = TEME
TIME_SYSTEM    = UTC
MEAN_ELEMENT_THEORY = SGP/SGP4

EPOCH          = 2026-02-11T06:00:00.999648
MEAN_MOTION    = 15.91399573
ECCENTRICITY   = .00010515
INCLINATION    = 97.2826
RA_OF_ASC_NODE = 74.8730
ARG_OF_PERICENTER = 86.1761
MEAN_ANOMALY   = 266.6411

EPHEMERIS_TYPE = 0
CLASSIFICATION_TYPE = U
NORAD_CAT_ID   = 67655
ELEMENT_SET_NO = 999
REV_AT_EPOCH   = 264
BSTAR          = -.57700849E-2
MEAN_MOTION_DOT = -.1826053E-1
MEAN_MOTION_DDOT = .91370063E-3

CCSDS_OMM_VERS = 2.0
CREATION_DATE  = 
ORIGINATOR     = 

OBJECT_NAME    = STARLINK-36688
OBJECT_ID      = 2026-022J
CENTER_NAME    = EARTH
REF_FRAME      = TEME
TIME_SYSTEM    = UTC
MEAN_ELEMENT_THEORY = SGP/SGP4

EPOCH          = 2026-02-11T06:00:00.999648
MEAN_MOTION    = 15.91565493
ECCENTRICITY   = .00011349
INCLINATION    = 97.2820
RA_OF_ASC_NODE = 74.8738
ARG_OF_PERICENTER = 68.3214
MEAN_ANOMALY   = 287.6576

EPHEMERIS_TYPE = 0
CLASSIFICATION_TYPE = U
NORAD_CAT_ID   = 67656
ELEMENT_SET_NO = 999
REV_AT_EPOCH   = 264
BSTAR          = -.57365059E-2
MEAN_MOTION_DOT = -.1830817E-1
MEAN_MOTION_DDOT = .91969815E-3

CCSDS_OMM_VERS = 2.0
CREATION_DATE  = 
ORIGINATOR     = 

OBJECT_NAME    = STARLINK-36706
OBJECT_ID      = 2026-022K
CENTER_NAME    = EARTH
REF_FRAME      = TEME
TIME_SYSTEM    = UTC
MEAN_ELEMENT_THEORY = SGP/SGP4

EPOCH          = 2026-02-11T06:00:00.999648
MEAN_MOTION    = 15.91752570
ECCENTRICITY   = .00010765
INCLINATION    = 97.2817
RA_OF_ASC_NODE = 74.8751
ARG_OF_PERICENTER = 78.6519
MEAN_ANOMALY   = 280.9478

EPHEMERIS_TYPE = 0
CLASSIFICATION_TYPE = U
NORAD_CAT_ID   = 67657
ELEMENT_SET_NO = 999
REV_AT_EPOCH   = 261
BSTAR          = -.56552627E-2
MEAN_MOTION_DOT = -.182232E-1
MEAN_MOTION_DDOT = .91347285E-3

CCSDS_OMM_VERS = 2.0
CREATION_DATE  = 
ORIGINATOR     = 

OBJECT_NAME    = STARLINK-36701
OBJECT_ID      = 2026-022L
CENTER_NAME    = EARTH
REF_FRAME      = TEME
TIME_SYSTEM    = UTC
MEAN_ELEMENT_THEORY = SGP/SGP4

EPOCH          = 2026-02-11T06:00:00.999648
MEAN_MOTION    = 15.91960379
ECCENTRICITY   = .00011278
INCLINATION    = 97.2817
RA_OF_ASC_NODE = 74.8774
ARG_OF_PERICENTER = 78.3649
MEAN_ANOMALY   = 285.2136

EPHEMERIS_TYPE = 0
CLASSIFICATION_TYPE = U
NORAD_CAT_ID   = 67658
ELEMENT_SET_NO = 999
REV_AT_EPOCH   = 264
BSTAR          = -.55552177E-2
MEAN_MOTION_DOT = -.1809406E-1
MEAN_MOTION_DDOT = .90333166E-3

CCSDS_OMM_VERS = 2.0
CREATION_DATE  = 
ORIGINATOR     = 

OBJECT_NAME    = STARLINK-36642
OBJECT_ID      = 2026-022M
CENTER_NAME    = EARTH
REF_FRAME      = TEME
TIME_SYSTEM    = UTC
MEAN_ELEMENT_THEORY = SGP/SGP4

EPOCH          = 2026-02-11T06:00:00.999648
MEAN_MOTION    = 15.92105439
ECCENTRICITY   = .00011002
INCLINATION    = 97.2817
RA_OF_ASC_NODE = 74.8788
ARG_OF_PERICENTER = 80.3438
MEAN_ANOMALY   = 286.1586

EPHEMERIS_TYPE = 0
CLASSIFICATION_TYPE = U
NORAD_CAT_ID   = 67659
ELEMENT_SET_NO = 999
REV_AT_EPOCH   = 264
BSTAR          = -.54968495E-2
MEAN_MOTION_DOT = -.1803838E-1
MEAN_MOTION_DDOT = .89947677E-3

CCSDS_OMM_VERS = 2.0
CREATION_DATE  = 
ORIGINATOR     = 

OBJECT_NAME    = STARLINK-36673
OBJECT_ID      = 2026-022N
CENTER_NAME    = EARTH
REF_FRAME      = TEME
TIME_SYSTEM    = UTC
MEAN_ELEMENT_THEORY = SGP/SGP4

EPOCH          = 2026-02-11T06:00:00.999648
MEAN_MOTION    = 15.92315679
ECCENTRICITY   = .00010393
INCLINATION    = 97.2812
RA_OF_ASC_NODE = 74.8798
ARG_OF_PERICENTER = 82.8214
MEAN_ANOMALY   = 287.6181

EPHEMERIS_TYPE = 0
CLASSIFICATION_TYPE = U
NORAD_CAT_ID   = 67660
ELEMENT_SET_NO = 999
REV_AT_EPOCH   = 264
BSTAR          = -.54331031E-2
MEAN_MOTION_DOT = -.1802312E-1
MEAN_MOTION_DDOT = .89998158E-3

CCSDS_OMM_VERS = 2.0
CREATION_DATE  = 
ORIGINATOR     = 

OBJECT_NAME    = STARLINK-36674
OBJECT_ID      = 2026-022P
CENTER_NAME    = EARTH
REF_FRAME      = TEME
TIME_SYSTEM    = UTC
MEAN_ELEMENT_THEORY = SGP/SGP4

EPOCH          = 2026-02-11T06:00:00.999648
MEAN_MOTION    = 15.92467544
ECCENTRICITY   = .00010711
INCLINATION    = 97.2813
RA_OF_ASC_NODE = 74.8813
ARG_OF_PERICENTER = 75.6306
MEAN_ANOMALY   = 297.7447

EPHEMERIS_TYPE = 0
CLASSIFICATION_TYPE = U
NORAD_CAT_ID   = 67661
ELEMENT_SET_NO = 999
REV_AT_EPOCH   = 264
BSTAR          = -.53953961E-2
MEAN_MOTION_DOT = -.1803856E-1
MEAN_MOTION_DDOT = .9028224E-3

CCSDS_OMM_VERS = 2.0
CREATION_DATE  = 
ORIGINATOR     = 

OBJECT_NAME    = STARLINK-36700
OBJECT_ID      = 2026-022Q
CENTER_NAME    = EARTH
REF_FRAME      = TEME
TIME_SYSTEM    = UTC
MEAN_ELEMENT_THEORY = SGP/SGP4

EPOCH          = 2026-02-11T06:00:00.999648
MEAN_MOTION    = 15.92853891
ECCENTRICITY   = .00011619
INCLINATION    = 97.2807
RA_OF_ASC_NODE = 74.8841
ARG_OF_PERICENTER = 76.5886
MEAN_ANOMALY   = 304.2203

EPHEMERIS_TYPE = 0
CLASSIFICATION_TYPE = U
NORAD_CAT_ID   = 67662
ELEMENT_SET_NO = 999
REV_AT_EPOCH   = 264
BSTAR          = -.52300612E-2
MEAN_MOTION_DOT = -.1784112E-1
MEAN_MOTION_DDOT = .88798078E-3

CCSDS_OMM_VERS = 2.0
CREATION_DATE  = 
ORIGINATOR     = 

OBJECT_NAME    = STARLINK-36675
OBJECT_ID      = 2026-022R
CENTER_NAME    = EARTH
REF_FRAME      = TEME
TIME_SYSTEM    = UTC
MEAN_ELEMENT_THEORY = SGP/SGP4

EPOCH          = 2026-02-11T06:00:00.999648
MEAN_MOTION    = 15.92662398
ECCENTRICITY   = .00010881
INCLINATION    = 97.2808
RA_OF_ASC_NODE = 74.8825
ARG_OF_PERICENTER = 75.4898
MEAN_ANOMALY   = 301.6404

EPHEMERIS_TYPE = 0
CLASSIFICATION_TYPE = U
NORAD_CAT_ID   = 67663
ELEMENT_SET_NO = 999
REV_AT_EPOCH   = 264
BSTAR          = -.5310564E-2
MEAN_MOTION_DOT = -.1793578E-1
MEAN_MOTION_DDOT = .89503049E-3

CCSDS_OMM_VERS = 2.0
CREATION_DATE  = 
ORIGINATOR     = 

OBJECT_NAME    = STARLINK-36404
OBJECT_ID      = 2026-022S
CENTER_NAME    = EARTH
REF_FRAME      = TEME
TIME_SYSTEM    = UTC
MEAN_ELEMENT_THEORY = SGP/SGP4

EPOCH          = 2026-02-11T06:00:00.999648
MEAN_MOTION    = 15.93050203
ECCENTRICITY   = .0001126
INCLINATION    = 97.2800
RA_OF_ASC_NODE = 74.8851
ARG_OF_PERICENTER = 72.9088
MEAN_ANOMALY   = 311.6371

EPHEMERIS_TYPE = 0
CLASSIFICATION_TYPE = U
NORAD_CAT_ID   = 67664
ELEMENT_SET_NO = 999
REV_AT_EPOCH   = 261
BSTAR          = -.51584726E-2
MEAN_MOTION_DOT = -.1777772E-1
MEAN_MOTION_DDOT = .8838868E-3

CCSDS_OMM_VERS = 2.0
CREATION_DATE  = 
ORIGINATOR     = 

OBJECT_NAME    = STARLINK-36399
OBJECT_ID      = 2026-022T
CENTER_NAME    = EARTH
REF_FRAME      = TEME
TIME_SYSTEM    = UTC
MEAN_ELEMENT_THEORY = SGP/SGP4

EPOCH          = 2026-02-11T06:00:00.999648
MEAN_MOTION    = 15.93189897
ECCENTRICITY   = .00010575
INCLINATION    = 97.2800
RA_OF_ASC_NODE = 74.8867
ARG_OF_PERICENTER = 77.9814
MEAN_ANOMALY   = 309.3139

EPHEMERIS_TYPE = 0
CLASSIFICATION_TYPE = U
NORAD_CAT_ID   = 67665
ELEMENT_SET_NO = 999
REV_AT_EPOCH   = 261
BSTAR          = -.51251557E-2
MEAN_MOTION_DOT = -.1779132E-1
MEAN_MOTION_DDOT = .88642259E-3

