STARLINK-36620          
1 67654U 26022G   26042.25001157 -.01827462  91289-3 -58430-2 0  9991
2 67654  97.2824  74.8708 0001038  77.8475 270.6724 15.91168388  2646
STARLINK-36720          
1 67655U 26022H   26042.25001157 -.01826053  91370-3 -57701-2 0  9998
2 67655  97.2826  74.8730 0001051  86.1761 266.6411 15.91399573  2640
STARLINK-36688          
1 67656U 26022J   26042.25001157 -.01830817  91970-3 -57365-2 0  9994
2 67656  97.2820  74.8738 0001134  68.3214 287.6576 15.91565493  2641
STARLINK-36706          
1 67657U 26022K   26042.25001157 -.01822320  91347-3 -56553-2 0  9991
2 67657  97.2817  74.8751 0001076  78.6519 280.9478 15.91752570  2618
STARLINK-36701          
1 67658U 26022L   26042.25001157 -.01809406  90333-3 -55552-2 0  9994
2 67658  97.2817  74.8774 0001127  78.3649 285.2136 15.91960379  2642
STARLINK-36642          
1 67659U 26022M   26042.25001157 -.01803838  89948-3 -54968-2 0  9998
2 67659  97.2817  74.8788 0001100  80.3438 286.1586 15.92105439  2646
STARLINK-36673          
1 67660U 26022N   26042.25001157 -.01802312  89998-3 -54331-2 0  9995
2 67660  97.2812  74.8798 0001039  82.8214 287.6181 15.92315679  2640
STARLINK-36674          
1 67661U 26022P   26042.25001157 -.01803856  90282-3 -53954-2 0  9998
2 67661  97.2813  74.8813 0001071  75.6306 297.7447 15.92467544  2644
STARLINK-36700          
1 67662U 26022Q   26042.25001157 -.01784112  88798-3 -52301-2 0  9996
2 67662  97.2807  74.8841 0001161  76.5886 304.2203 15.92853891  2640
STARLINK-36675          
1 67663U 26022R   26042.25001157 -.01793578  89503-3 -53106-2 0  9992
2 67663  97.2808  74.8825 0001088  75.4898 301.6404 15.92662398  2647
STARLINK-36404          
1 67664U 26022S   26042.25001157 -.01777772  88389-3 -51585-2 0  9991
2 67664  97.2800  74.8851 0001126  72.9088 311.6371 15.93050203  2613
STARLINK-36399          
1 67665U 26022T   26042.25001157 -.01779132  88642-3 -51252-2 0  9997
2 67665  97.2800  74.8867 0001057  77.9814 309.3139 15.93189897  2614
